#dP2024  8  9  0  0  0.00000000      96 __u+U IGS20 EXT  IAC
## 2326 432000.00000000   900.00000000 60531 0.0000000000000
+   53   G02G03G04G05G06G07G08G09G10G11G12G13G14G15G16G17G18
+        G19G20G21G22G23G24G25G26G27G28G29G30G31G32R01R02R03
+        R04R05R07R08R09R11R12R14R15R16R17R18R19R20R21R22R24
+        R25R26  0  0  0  0  0  0  0  0  0  0  0  0  0  0  0
+          0  0  0  0  0  0  0  0  0  0  0  0  0  0  0  0  0
++         8  8  8  8  9  9  8  9  7  9  7  5  7  7  7  8  8
++         9  8  9  7  8  9 10  8  7  7 10  9  7  9  8  8  7
++         9  9  8  8  7  8  9  7  9  9  8  7  8  8  8  9  8
++         8  7  0  0  0  0  0  0  0  0  0  0  0  0  0  0  0
++         0  0  0  0  0  0  0  0  0  0  0  0  0  0  0  0  0
%c M  cc GPS ccc cccc cccc cccc cccc ccccc ccccc ccccc ccccc
%c cc cc ccc ccc cccc cccc cccc cccc ccccc ccccc ccccc ccccc
%f  0.0000000  0.000000000  0.00000000000  0.000000000000000
%f  0.0000000  0.000000000  0.00000000000  0.000000000000000
%i    0    0    0    0      0      0      0      0         0
%i    0    0    0    0      0      0      0      0         0
/* IAC                                ULTRA-RAPID PREDICTION
/* S/V CLOCKS ARE ALIGNED TO GNSS TIME                      
/* G:C1WC2W R:C1PC2P E:C1XC5X C:C2IC6I J:C1CC2S             
/* PCV:IGS20_2317 OL/AL:FES2004  NONE     YN ORB:CoN CLK:CoN
*  2024 08 09 20 30  0.00000000
PG02 -14075.012136   8499.224901  21268.121636   -382.235769
PG03 -23095.828363  12988.170604   -178.093026    493.521491
PG04 -17896.972933   4285.760301 -19188.276771    420.941357
PG05  22095.441995  -1895.244778 -14856.523907   -182.661050
PG06   5355.924725  24275.052343  -9139.486860    108.749604
PG07  -6349.645875  23904.089351  -8503.857897    -54.461294
PG08 -24044.161355  -4362.745278  10805.902841    309.239779
PG09  -7249.627866  13460.161205 -21806.508824    307.540640
PG10  -1378.268788 -15638.921915  21576.187470    -89.322548
PG11  12529.495810  13360.634938 -19231.747398   -718.990297
PG12  24511.183401  -9812.769064   2360.617533   -529.086998
PG13      0.000000      0.000000      0.000000    669.824978
PG14  -2844.169694  17607.263485  19656.739583    468.671122
PG15  24252.581002   1433.952208  10425.982010    190.745421
PG16 -20532.504624  -3745.585566 -17013.737066   -213.068181
PG17   7278.310899  19206.169753  17168.953522    658.633152
PG18   6460.538495 -24209.239241  -8457.895040   -644.746864
PG19  15334.508520  19653.023362   9588.294457    522.335190
PG20  15646.472340   5932.390879 -20526.175803    371.849079
PG21 -15320.402770   1416.984158  22048.669511    103.892026
PG22   5077.528326  14607.123098  22019.907197    -49.446197
PG23  11477.579210 -18586.940474  14978.907151    293.577758
PG24  14770.174398  -6356.133373  20652.388495   -485.859767
PG25  18692.497482 -17232.096478  -7546.307216    499.183510
PG26 -10611.951572 -12026.688185 -21343.683884    103.731400
PG27 -23402.349656 -13003.231303    753.448889    -32.784341
PG28  -5216.680674 -25161.419375  -6726.380690   -366.084547
PG29  11596.219814 -10047.369259 -21736.227633   -584.988643
PG30    780.323081  26370.097923   1450.494988   -342.873194
PG31 -11252.157832 -17333.108879 -16688.072343   -226.022009
PG32 -10251.712420 -18827.281694  16023.351513   -606.943345
PR01  23258.643397  -1729.621928  10340.799090     93.997704
PR02  10290.690446  -8447.609803  21783.322517    -24.057249
PR03  -8807.002653 -11480.121175  21065.362185    105.334156
PR04 -22429.934828  -8223.088742   8988.212311    249.169713
PR05 -24242.460591   -678.798089  -7939.785769    135.834879
PR07   9386.667035  11430.104084 -20731.185325     88.456703
PR08  22617.756658   7928.144407  -8625.276625     -6.327195
PR09 -14238.646657  20907.495590   2941.682879    202.471745
PR11   8985.620397   6300.853094  23041.414958     15.390113
PR12  17947.768081 -11141.277059  14320.703867     43.429321
PR14   3201.628734 -17906.761842 -17874.602746     26.799127
PR15 -10166.241033  -4944.943271 -22840.022430     77.014145
PR16 -17780.473130  11128.316039 -14471.245404     28.101243
PR17  -7667.756774 -24176.044427  -2450.765704    112.078355
PR18 -12677.861377 -17560.547659  13519.895754    156.210499
PR19 -11743.803048  -4104.006848  22263.910145   -286.991231
PR20  -3335.711446  17071.352266  18650.751616   -117.435004
PR21   7217.615785  24300.354667   3009.526906   -124.641840
PR22  12634.028040  16877.246163 -14332.318853     72.693684
PR24   2593.192722 -17740.171318 -18117.716815    -67.168855
PR25   6873.510162  24490.479128   2105.119235    -99.945306
PR26  21929.502043   8326.706207 -10030.789739      8.779748
*  2024 08 09 20 45  0.00000000
PG02 -14385.199608   6144.887877  21903.728361   -382.228979
PG03 -23055.044308  12737.061299   2727.713182    493.535193
PG04 -19642.704238   3102.775316 -17660.641547    420.948070
PG05  20701.640948   -780.659231 -16848.684356   -182.662314
PG06   5191.607159  25173.215649  -6406.890800    108.727814
PG07  -6672.565758  22708.293643 -11047.459445    -54.455808
PG08 -24921.775509  -5055.610410   8280.975713    309.253113
PG09  -9435.987685  12315.773007 -21650.100819    307.554511
PG10    689.749208 -16808.459984  20674.163084    -89.332342
PG11  12351.342903  15471.915058 -17711.827780   -718.995509
PG12  24217.069949  -9373.118574   5177.332642   -529.089739
PG13      0.000000      0.000000      0.000000    669.827013
PG14  -4806.185202  18561.871199  18329.956801    468.678965
PG15  25199.251454   2086.933220   7903.922271    190.749227
PG16 -18820.516281  -4720.721493 -18663.068417   -213.058816
PG17   5525.199982  18258.310771  18832.170650    658.624855
PG18   6672.697745 -23087.033034 -11050.297263   -644.749856
PG19  14206.996943  19091.190900  12058.425403    522.339802
PG20  13891.008118   7582.872527 -21244.637025    371.848689
PG21 -15625.603303   -989.354978  21946.842005    103.890057
PG22   2905.080397  15653.822253  21711.953793    -49.450044
PG23  12901.304062 -19304.611593  12721.550417    293.585568
PG24  15129.497873  -3892.108178  21030.201045   -485.860492
PG25  19418.070746 -17347.100928  -4817.322832    499.183697
PG26  -8644.375211 -13438.475267 -21355.604086    103.724613
PG27 -23259.101646 -13177.560135  -2077.131693    -32.784905
PG28  -5004.056291 -25783.764380  -3956.488285   -366.098115
PG29  13617.649132  -8680.299908 -21154.848190   -584.986822
PG30    432.122646  26366.308409  -1369.743381   -342.867220
PG31 -11046.168723 -19108.967409 -14711.321701   -226.021615
PG32  -8516.683370 -18057.887701  17828.969282   -606.940980
PR01  24360.668731  -1751.795132   7377.218221     93.998765
PR02  12875.084808  -8141.436615  20478.929110    -24.057424
PR03  -6180.381286 -11066.379399  22188.285742    105.334799
PR04 -21182.886544  -7878.050432  11867.632665    249.171281
PR05 -25049.176214   -620.636869  -4839.351040    135.835385
PR07   6774.880677  11016.471231 -21940.112527     88.457377
PR08  21395.476789   7616.518322 -11522.645034     -6.327413
PR09 -14265.742289  21089.739986   -242.694082    202.473610
PR11   7287.891153   8566.849028  22907.759763     15.388872
PR12  16714.301890  -9682.960140  16684.465893     43.429598
PR14   4380.506793 -19614.604675 -15704.488113     26.799153
PR15  -8446.691305  -7193.211350 -22943.743743     77.013779
PR16 -16526.339186   9649.506006 -16828.261803     28.101477
PR17  -7650.925363 -23642.507182  -5636.553460    112.081217
PR18 -13387.634075 -18890.355441  10762.086730    156.212116
PR19 -12714.484404  -6604.152863  21098.037837   -286.992570
PR20  -4026.182205  14755.251893  20410.619218   -117.435618
PR21   7196.173702  23698.828282   6180.366523   -124.644757
PR22  13297.508527  18348.902625 -11683.083640     72.686901
PR24   3397.365781 -15528.523017 -19925.843237    -67.170303
PR25   6858.591677  24012.736295   5273.945591    -99.946114
PR26  20546.824066   8002.286051 -12826.116247      8.781490
EOF
